KAITUO 1B               
1 40912U 15049P   18043.82190021  .00001103  00000-0  56696-4 0  9995
2 40912  97.4515  52.9301 0017367  84.4812  40.6035 15.18435596132797
TIANWANG 1C (TW-1C)     
1 40926U 15051B   18043.84066817  .00006709  00000-0  13443-3 0  9999
2 40926  97.2013  86.8305 0011156  23.3668  93.2389 15.46994473134078
TIANWANG 1B (TW-1B)     
1 40927U 15051C   18043.82399438  .00006264  00000-0  13080-3 0  9999
2 40927  97.2095  86.7118 0011496  33.3374  53.7629 15.45811892133992
TIANWANG 1A (TW-1A)     
1 40928U 15051D   18043.83818944  .00002596  00000-0  71528-4 0  9995
2 40928  97.2018  80.2412 0014026  54.8879  49.2457 15.37941335133664
LAPAN-A2 (IO-86)        
1 40931U 15052B   18043.03277793  .00000976  00000-0  47099-4 0  9999
2 40931   5.9986 322.4979 0013113  35.3051 324.8157 14.76566896128478
LQSAT                   
1 40958U 15057A   18043.85624752  .00000020  00000-0  10796-4 0  9998
2 40958  97.9529 119.6597 0018762  20.3833 339.8108 14.73015167126545
CHUBUSAT-2              
1 41338U 16012B   18043.27253102  .00000334  00000-0  19383-4 0  9995
2 41338  31.0046  27.2509 0013898 276.1192  83.7860 14.99917201109068
CHUBUSAT-3              
1 41339U 16012C   18043.36860967  .00000279  00000-0  14991-4 0  9997
2 41339  31.0105  25.4177 0013953 283.2851  76.6228 15.00108695109060
OUFTI-1                 
1 41458U 16025C   18043.86414410  .00000676  00000-0  39977-4 0  9998
2 41458  98.1530 100.0007 0170578 203.7927 155.5319 15.04233562 98744
E-ST@R-II               
1 41459U 16025D   18043.71708398  .00000370  00000-0  24175-4 0  9999
2 41459  98.1523  99.7333 0171318 204.9973 154.2875 15.03987044 98710
AAUSAT 4                
1 41460U 16025E   18043.87417591  .00001742  00000-0  94792-4 0  9996
2 41460  98.1492 100.2208 0163685 201.1590 158.2804 15.05275716 98789
NUSAT 1 (LO-87)         
1 41557U 16033B   18043.95091315  .00001197  00000-0  46552-4 0  9998
2 41557  97.4443 128.3754 0012627 232.6437 127.3652 15.27982768 95184
BEESAT-4                
1 41619U 16040W   18043.67368952  .00001221  00000-0  56921-4 0  9997
2 41619  97.4319 108.4683 0010397 312.0760  47.9590 15.21733125 79151
PRATHAM                 
1 41783U 16059A   18043.72223603  .00000061  00000-0  21230-4 0  9994
2 41783  98.1352 107.1893 0034744 125.3425 235.1033 14.62899754 73761
ALSAT 1N                
1 41789U 16059G   18043.71569351  .00000027  00000-0  14313-4 0  9998
2 41789  98.1355 108.1546 0029856 117.8623 242.5596 14.64125577 73808
NAYIF-1 (EO-88)         
1 42017U 17008BX  18043.88901576  .00001270  00000-0  55359-4 0  9991
2 42017  97.4645 109.6173 0008157  96.5849 263.6316 15.24024004 55133
LILACSAT-1              
1 42725U 98067ME  18043.84055533  .00013863  00000-0  15090-3 0  9998
2 42725  51.6368 269.5895 0005810 128.6909 231.4606 15.63728615 41049
MAX VALIER SAT          
1 42778U 17036P   18043.92030319  .00000786  00000-0  38480-4 0  9996
2 42778  97.4208 105.6065 0013904 140.0648 220.1613 15.21026960 35615
FOX-1B (AO-91)          
1 43017U 17073E   18043.77842111  .00000891  00000-0  76183-4 0  9997
2 43017  97.6996 340.1692 0259499 316.8514  41.2615 14.77896829 12737
FOX-1D (AO-92)          
1 43137U 18004AC  18043.68910497  .00000903  00000-0  42150-4 0  9999
2 43137  97.5510 105.9599 0009951 167.0525 193.0969 15.22418382  4765
